start=new Date('2023-05-29T00:00:00.000Z').valueOf();
sats=[{"MEAN_MOTION_DOT":"0.00009794","APOAPSIS":"548.129","TLE_LINE1":"1 45362U 20019C   23148.93565410  .00009794  00000-0  67515-3 0  9999","PERIAPSIS":"546.180","LAUNCH_DATE":"2020-03-18","MEAN_MOTION_DDOT":"0.0000000000000","PERIOD":"95.591","CLASSIFICATION_TYPE":"U","RCS_SIZE":"LARGE","MEAN_ELEMENT_THEORY":"SGP4","GP_ID":"232703839","REV_AT_EPOCH":"17662","BSTAR":"0.00067515000000","EPOCH":"2023-05-28T22:27:20.514240","INCLINATION":"53.0551","SITE":"AFETR","DECAY_DATE":null,"FILE":"3919546","COUNTRY_CODE":"US","CENTER_NAME":"EARTH","OBJECT_NAME":"STARLINK-1306","SEMIMAJOR_AXIS":"6925.289","NORAD_CAT_ID":"45362","OBJECT_TYPE":"PAYLOAD","RA_OF_ASC_NODE":"46.5132","REF_FRAME":"TEME","ARG_OF_PERICENTER":"89.0938","ELEMENT_SET_NO":"999","MEAN_ANOMALY":"271.0212","TIME_SYSTEM":"UTC","EPHEMERIS_TYPE":"0","OBJECT_ID":"2020-019C","MEAN_MOTION":"15.06419271","TLE_LINE2":"2 45362  53.0551  46.5132 0001407  89.0938 271.0212 15.06419271176624","ECCENTRICITY":"0.00014070"},{"MEAN_MOTION_DDOT":"0.0000000000000","PERIOD":"94.922","CLASSIFICATION_TYPE":"U","RCS_SIZE":"LARGE","REV_AT_EPOCH":"17712","GP_ID":"232704090","MEAN_ELEMENT_THEORY":"SGP4","BSTAR":"0.00161550000000","MEAN_MOTION_DOT":"0.00032184","TLE_LINE1":"1 45364U 20019E   23148.91239511  .00032184  00000-0  16155-2 0  9991","APOAPSIS":"517.534","PERIAPSIS":"512.047","LAUNCH_DATE":"2020-03-18","ARG_OF_PERICENTER":"114.2326","ELEMENT_SET_NO":"999","MEAN_ANOMALY":"245.9084","TIME_SYSTEM":"UTC","ECCENTRICITY":"0.00039800","EPHEMERIS_TYPE":"0","OBJECT_ID":"2020-019E","TLE_LINE2":"2 45364  53.0565  10.5037 0003980 114.2326 245.9084 15.17041282177124","MEAN_MOTION":"15.17041282","INCLINATION":"53.0565","EPOCH":"2023-05-28T21:53:50.937504","DECAY_DATE":null,"FILE":"3919546","SITE":"AFETR","COUNTRY_CODE":"US","CENTER_NAME":"EARTH","OBJECT_NAME":"STARLINK-1313","SEMIMAJOR_AXIS":"6892.925","REF_FRAME":"TEME","NORAD_CAT_ID":"45364","RA_OF_ASC_NODE":"10.5037","OBJECT_TYPE":"PAYLOAD"},{"BSTAR":"0.00181540000000","MEAN_ELEMENT_THEORY":"SGP4","REV_AT_EPOCH":"17700","GP_ID":"232704841","RCS_SIZE":"LARGE","CLASSIFICATION_TYPE":"U","PERIOD":"94.598","MEAN_MOTION_DDOT":"0.0000000000000","PERIAPSIS":"498.165","LAUNCH_DATE":"2020-03-18","APOAPSIS":"500.085","TLE_LINE1":"1 45365U 20019F   23148.93186948  .00042179  00000-0  18154-2 0  9995","MEAN_MOTION_DOT":"0.00042179","MEAN_MOTION":"15.22227605","TLE_LINE2":"2 45365  52.9895  14.3403 0001396  64.4397 295.6742 15.22227605177002","EPHEMERIS_TYPE":"0","OBJECT_ID":"2020-019F","ECCENTRICITY":"0.00013960","TIME_SYSTEM":"UTC","MEAN_ANOMALY":"295.6742","ELEMENT_SET_NO":"999","ARG_OF_PERICENTER":"64.4397","OBJECT_TYPE":"PAYLOAD","RA_OF_ASC_NODE":"14.3403","NORAD_CAT_ID":"45365","REF_FRAME":"TEME","OBJECT_NAME":"STARLINK-1317","SEMIMAJOR_AXIS":"6877.260","COUNTRY_CODE":"US","CENTER_NAME":"EARTH","SITE":"AFETR","DECAY_DATE":null,"FILE":"3919546","EPOCH":"2023-05-28T22:21:53.523072","INCLINATION":"52.9895"},{"ARG_OF_PERICENTER":"76.8956","MEAN_ANOMALY":"283.2170","ELEMENT_SET_NO":"999","TIME_SYSTEM":"UTC","ECCENTRICITY":"0.00012290","TLE_LINE2":"2 45366  53.0545  46.5822 0001229  76.8956 283.2170 15.06411792176632","MEAN_MOTION":"15.06411792","OBJECT_ID":"2020-019G","EPHEMERIS_TYPE":"0","INCLINATION":"53.0545","EPOCH":"2023-05-28T22:06:06.547104","FILE":"3919546","DECAY_DATE":null,"SITE":"AFETR","OBJECT_NAME":"STARLINK-1262","SEMIMAJOR_AXIS":"6925.312","COUNTRY_CODE":"US","CENTER_NAME":"EARTH","REF_FRAME":"TEME","OBJECT_TYPE":"PAYLOAD","RA_OF_ASC_NODE":"46.5822","NORAD_CAT_ID":"45366","PERIOD":"95.591","MEAN_MOTION_DDOT":"0.0000000000000","RCS_SIZE":"LARGE","CLASSIFICATION_TYPE":"U","REV_AT_EPOCH":"17663","GP_ID":"232703589","MEAN_ELEMENT_THEORY":"SGP4","BSTAR":"0.00095280000000","MEAN_MOTION_DOT":"0.00013943","TLE_LINE1":"1 45366U 20019G   23148.92090911  .00013943  00000-0  95280-3 0  9992","APOAPSIS":"548.029","PERIAPSIS":"546.326","LAUNCH_DATE":"2020-03-18"},{"TLE_LINE2":"2 45367  53.0548  46.4824 0000977  94.0946 266.0155 15.06406863176632","MEAN_MOTION":"15.06406863","OBJECT_ID":"2020-019H","EPHEMERIS_TYPE":"0","ECCENTRICITY":"0.00009770","TIME_SYSTEM":"UTC","MEAN_ANOMALY":"266.0155","ELEMENT_SET_NO":"999","ARG_OF_PERICENTER":"94.0946","OBJECT_TYPE":"PAYLOAD","RA_OF_ASC_NODE":"46.4824","NORAD_CAT_ID":"45367","REF_FRAME":"TEME","SEMIMAJOR_AXIS":"6925.328","OBJECT_NAME":"STARLINK-1273","COUNTRY_CODE":"US","CENTER_NAME":"EARTH","SITE":"AFETR","DECAY_DATE":null,"FILE":"3919546","EPOCH":"2023-05-28T22:37:57.133632","INCLINATION":"53.0548","BSTAR":"0.00032049000000","MEAN_ELEMENT_THEORY":"SGP4","GP_ID":"232703339","REV_AT_EPOCH":"17663","RCS_SIZE":"LARGE","CLASSIFICATION_TYPE":"U","PERIOD":"95.592","MEAN_MOTION_DDOT":"0.0000000000000","PERIAPSIS":"546.516","LAUNCH_DATE":"2020-03-18","APOAPSIS":"547.869","TLE_LINE1":"1 45367U 20019H   23148.94302238  .00004496  00000-0  32049-3 0  9990","MEAN_MOTION_DOT":"0.00004496"},{"OBJECT_NAME":"STARLINK-1276","SEMIMAJOR_AXIS":"6925.308","COUNTRY_CODE":"US","CENTER_NAME":"EARTH","OBJECT_TYPE":"PAYLOAD","RA_OF_ASC_NODE":"46.6099","NORAD_CAT_ID":"45368","REF_FRAME":"TEME","EPOCH":"2023-05-28T21:55:29.372160","INCLINATION":"53.0553","SITE":"AFETR","DECAY_DATE":null,"FILE":"3919546","TIME_SYSTEM":"UTC","MEAN_MOTION":"15.06413182","TLE_LINE2":"2 45368  53.0553  46.6099 0000924  73.8442 286.2648 15.06413182176636","OBJECT_ID":"2020-019J","EPHEMERIS_TYPE":"0","ECCENTRICITY":"0.00009240","ARG_OF_PERICENTER":"73.8442","MEAN_ANOMALY":"286.2648","ELEMENT_SET_NO":"999","APOAPSIS":"547.813","TLE_LINE1":"1 45368U 20019J   23148.91353440  .00019839  00000-0  13465-2 0  9996","PERIAPSIS":"546.533","LAUNCH_DATE":"2020-03-18","MEAN_MOTION_DOT":"0.00019839","MEAN_ELEMENT_THEORY":"SGP4","REV_AT_EPOCH":"17663","GP_ID":"232704591","BSTAR":"0.00134650000000","PERIOD":"95.591","MEAN_MOTION_DDOT":"0.0000000000000","RCS_SIZE":"LARGE","CLASSIFICATION_TYPE":"U"},{"TLE_LINE1":"1 45369U 20019K   23148.91259287  .00019427  00000-0  13191-2 0  9990","APOAPSIS":"548.007","PERIAPSIS":"546.353","LAUNCH_DATE":"2020-03-18","MEAN_MOTION_DOT":"0.00019427","GP_ID":"232704341","REV_AT_EPOCH":"17663","MEAN_ELEMENT_THEORY":"SGP4","BSTAR":"0.00131910000000","MEAN_MOTION_DDOT":"0.0000000000000","PERIOD":"95.591","CLASSIFICATION_TYPE":"U","RCS_SIZE":"LARGE","COUNTRY_CODE":"US","CENTER_NAME":"EARTH","SEMIMAJOR_AXIS":"6925.315","OBJECT_NAME":"STARLINK-1277","REF_FRAME":"TEME","NORAD_CAT_ID":"45369","OBJECT_TYPE":"PAYLOAD","RA_OF_ASC_NODE":"46.6180","EPOCH":"2023-05-28T21:54:08.023968","INCLINATION":"53.0550","FILE":"3919546","DECAY_DATE":null,"SITE":"AFETR","TIME_SYSTEM":"UTC","ECCENTRICITY":"0.00011940","OBJECT_ID":"2020-019K","EPHEMERIS_TYPE":"0","MEAN_MOTION":"15.06410948","TLE_LINE2":"2 45369  53.0550  46.6180 0001194  87.6216 272.4910 15.06410948176633","ARG_OF_PERICENTER":"87.6216","ELEMENT_SET_NO":"999","MEAN_ANOMALY":"272.4910"},{"REV_AT_EPOCH":"17664","GP_ID":"232703089","MEAN_ELEMENT_THEORY":"SGP4","BSTAR":"0.00134910000000","PERIOD":"95.591","MEAN_MOTION_DDOT":"0.0000000000000","RCS_SIZE":"LARGE","CLASSIFICATION_TYPE":"U","TLE_LINE1":"1 45370U 20019L   23148.96882659  .00019878  00000-0  13491-2 0  9995","APOAPSIS":"547.878","LAUNCH_DATE":"2020-03-18","PERIAPSIS":"546.467","MEAN_MOTION_DOT":"0.00019878","TIME_SYSTEM":"UTC","ECCENTRICITY":"0.00010190","MEAN_MOTION":"15.06413456","TLE_LINE2":"2 45370  53.0548  46.3618 0001019  95.3749 264.7356 15.06413456176644","OBJECT_ID":"2020-019L","EPHEMERIS_TYPE":"0","ARG_OF_PERICENTER":"95.3749","MEAN_ANOMALY":"264.7356","ELEMENT_SET_NO":"999","SEMIMAJOR_AXIS":"6925.307","OBJECT_NAME":"STARLINK-1281","COUNTRY_CODE":"US","CENTER_NAME":"EARTH","REF_FRAME":"TEME","RA_OF_ASC_NODE":"46.3618","OBJECT_TYPE":"PAYLOAD","NORAD_CAT_ID":"45370","EPOCH":"2023-05-28T23:15:06.617376","INCLINATION":"53.0548","FILE":"3919546","DECAY_DATE":null,"SITE":"AFETR"},{"CLASSIFICATION_TYPE":"U","RCS_SIZE":"LARGE","MEAN_MOTION_DDOT":"0.0000000000000","PERIOD":"95.591","BSTAR":"0.00128020000000","MEAN_ELEMENT_THEORY":"SGP4","REV_AT_EPOCH":"17663","GP_ID":"232703840","MEAN_MOTION_DOT":"0.00018847","PERIAPSIS":"546.281","LAUNCH_DATE":"2020-03-18","APOAPSIS":"548.040","TLE_LINE1":"1 45371U 20019M   23148.93102250  .00018847  00000-0  12802-2 0  9995","ELEMENT_SET_NO":"999","MEAN_ANOMALY":"278.1460","ARG_OF_PERICENTER":"81.9673","EPHEMERIS_TYPE":"0","OBJECT_ID":"2020-019M","MEAN_MOTION":"15.06417365","TLE_LINE2":"2 45371  53.0552  46.5210 0001270  81.9673 278.1460 15.06417365176633","ECCENTRICITY":"0.00012700","TIME_SYSTEM":"UTC","SITE":"AFETR","DECAY_DATE":null,"FILE":"3919546","INCLINATION":"53.0552","EPOCH":"2023-05-28T22:20:40.344000","NORAD_CAT_ID":"45371","RA_OF_ASC_NODE":"46.5210","OBJECT_TYPE":"PAYLOAD","REF_FRAME":"TEME","COUNTRY_CODE":"US","CENTER_NAME":"EARTH","SEMIMAJOR_AXIS":"6925.295","OBJECT_NAME":"STARLINK-1287"},{"LAUNCH_DATE":"2020-03-18","PERIAPSIS":"546.356","APOAPSIS":"548.032","TLE_LINE1":"1 45372U 20019N   23148.88036679  .00009370  00000-0  64699-3 0  9994","MEAN_MOTION_DOT":"0.00009370","BSTAR":"0.00064699000000","MEAN_ELEMENT_THEORY":"SGP4","REV_AT_EPOCH":"17662","GP_ID":"232704091","RCS_SIZE":"LARGE","CLASSIFICATION_TYPE":"U","PERIOD":"95.592","MEAN_MOTION_DDOT":"0.0000000000000","OBJECT_TYPE":"PAYLOAD","RA_OF_ASC_NODE":"46.7665","NORAD_CAT_ID":"45372","REF_FRAME":"TEME","OBJECT_NAME":"STARLINK-1288","SEMIMAJOR_AXIS":"6925.329","CENTER_NAME":"EARTH","COUNTRY_CODE":"US","SITE":"AFETR","FILE":"3919546","DECAY_DATE":null,"INCLINATION":"53.0550","EPOCH":"2023-05-28T21:07:43.690656","TLE_LINE2":"2 45372  53.0550  46.7665 0001210  77.9033 282.2091 15.06406528176621","MEAN_MOTION":"15.06406528","EPHEMERIS_TYPE":"0","OBJECT_ID":"2020-019N","ECCENTRICITY":"0.00012100","TIME_SYSTEM":"UTC","MEAN_ANOMALY":"282.2091","ELEMENT_SET_NO":"999","ARG_OF_PERICENTER":"77.9033"}];
